{
  "type": "FeatureCollection",
  "features": [
    {
      "type": "Feature",
      "properties": {
        "norad_id": 33791,
        "name": "COSMOS 2251 DEB",
        "group": "cosmos-2251-debris",
        "lat": 74.10638793408116,
        "lon": 135.97544966773745,
        "alt_km": 761.5535018630244,
        "timestamp": "2025-12-05T09:41:19.524793+00:00",
        "meta_object_name": "COSMOS 2251 DEB",
        "meta_object_id": "1993-036AG",
        "meta_epoch": "2025-12-04T15:42:14.176800",
        "meta_mean_motion": 14.43060967,
        "meta_eccentricity": 0.0030612,
        "meta_inclination": 74.1763,
        "meta_ra_of_asc_node": 52.4702,
        "meta_arg_of_pericenter": 250.9996,
        "meta_mean_anomaly": 266.3224,
        "meta_ephemeris_type": 0,
        "meta_classification_type": "U",
        "meta_norad_cat_id": 33791,
        "meta_element_set_no": 999,
        "meta_rev_at_epoch": 87935,
        "meta_bstar": 0.0015484,
        "meta_mean_motion_dot": 5.199e-05,
        "meta_mean_motion_ddot": 0,
        "tle_line1": "1 33791U 93036AG  25338.65433075  .00005199  00000+0  15484-2 0  9995",
        "tle_line2": "2 33791  74.1763  52.4702 0030612 250.9996 266.3224 14.43060967879352"
      },
      "geometry": {
        "type": "Point",
        "coordinates": [
          135.97544966773745,
          74.10638793408116
        ]
      }
    },
    {
      "type": "Feature",
      "properties": {
        "norad_id": 33792,
        "name": "COSMOS 2251 DEB",
        "group": "cosmos-2251-debris",
        "lat": -7.909525060586018,
        "lon": 179.35931912659697,
        "alt_km": 1264.8063130743894,
        "timestamp": "2025-12-05T09:41:19.524804+00:00",
        "meta_object_name": "COSMOS 2251 DEB",
        "meta_object_id": "1993-036AH",
        "meta_epoch": "2025-12-04T12:05:38.033088",
        "meta_mean_motion": 13.45805902,
        "meta_eccentricity": 0.0426818,
        "meta_inclination": 73.9011,
        "meta_ra_of_asc_node": 358.4962,
        "meta_arg_of_pericenter": 64.688,
        "meta_mean_anomaly": 81.5791,
        "meta_ephemeris_type": 0,
        "meta_classification_type": "U",
        "meta_norad_cat_id": 33792,
        "meta_element_set_no": 999,
        "meta_rev_at_epoch": 82331,
        "meta_bstar": 0.0011246,
        "meta_mean_motion_dot": 1.145e-05,
        "meta_mean_motion_ddot": 0,
        "tle_line1": "1 33792U 93036AH  25338.50391242  .00001145  00000+0  11246-2 0  9998",
        "tle_line2": "2 33792  73.9011 358.4962 0426818  64.6880  81.5791 13.45805902823310"
      },
      "geometry": {
        "type": "Point",
        "coordinates": [
          179.35931912659697,
          -7.909525060586018
        ]
      }
    },
    {
      "type": "Feature",
      "properties": {
        "norad_id": 33793,
        "name": "COSMOS 2251 DEB",
        "group": "cosmos-2251-debris",
        "lat": 18.446272409116045,
        "lon": 168.74961605815787,
        "alt_km": 774.9116656515098,
        "timestamp": "2025-12-05T09:41:19.524815+00:00",
        "meta_object_name": "COSMOS 2251 DEB",
        "meta_object_id": "1993-036AJ",
        "meta_epoch": "2025-12-04T15:27:23.836032",
        "meta_mean_motion": 14.2768171,
        "meta_eccentricity": 0.0078229,
        "meta_inclination": 73.9802,
        "meta_ra_of_asc_node": 164.6306,
        "meta_arg_of_pericenter": 316.3245,
        "meta_mean_anomaly": 119.2862,
        "meta_ephemeris_type": 0,
        "meta_classification_type": "U",
        "meta_norad_cat_id": 33793,
        "meta_element_set_no": 999,
        "meta_rev_at_epoch": 87091,
        "meta_bstar": 0.0012921,
        "meta_mean_motion_dot": 3.266e-05,
        "meta_mean_motion_ddot": 0,
        "tle_line1": "1 33793U 93036AJ  25338.64402588  .00003266  00000+0  12921-2 0  9997",
        "tle_line2": "2 33793  73.9802 164.6306 0078229 316.3245 119.2862 14.27681710870915"
      },
      "geometry": {
        "type": "Point",
        "coordinates": [
          168.74961605815787,
          18.446272409116045
        ]
      }
    },
    {
      "type": "Feature",
      "properties": {
        "norad_id": 33795,
        "name": "COSMOS 2251 DEB",
        "group": "cosmos-2251-debris",
        "lat": 69.5946140926992,
        "lon": 142.10188568239715,
        "alt_km": 548.2143769848335,
        "timestamp": "2025-12-05T09:41:19.524825+00:00",
        "meta_object_name": "COSMOS 2251 DEB",
        "meta_object_id": "1993-036AL",
        "meta_epoch": "2025-12-04T16:19:25.480992",
        "meta_mean_motion": 15.05017525,
        "meta_eccentricity": 0.0032928,
        "meta_inclination": 74.0323,
        "meta_ra_of_asc_node": 93.2564,
        "meta_arg_of_pericenter": 179.3235,
        "meta_mean_anomaly": 299.6005,
        "meta_ephemeris_type": 0,
        "meta_classification_type": "U",
        "meta_norad_cat_id": 33795,
        "meta_element_set_no": 999,
        "meta_rev_at_epoch": 89900,
        "meta_bstar": 0.0033446,
        "meta_mean_motion_dot": 0.00048355,
        "meta_mean_motion_ddot": 0,
        "tle_line1": "1 33795U 93036AL  25338.68015603  .00048355  00000+0  33446-2 0  9994",
        "tle_line2": "2 33795  74.0323  93.2564 0032928 179.3235 299.6005 15.05017525899009"
      },
      "geometry": {
        "type": "Point",
        "coordinates": [
          142.10188568239715,
          69.5946140926992
        ]
      }
    },
    {
      "type": "Feature",
      "properties": {
        "norad_id": 33797,
        "name": "COSMOS 2251 DEB",
        "group": "cosmos-2251-debris",
        "lat": 63.79668404587819,
        "lon": 84.43464229145604,
        "alt_km": 678.6620075673882,
        "timestamp": "2025-12-05T09:41:19.524835+00:00",
        "meta_object_name": "COSMOS 2251 DEB",
        "meta_object_id": "1993-036AN",
        "meta_epoch": "2025-12-04T15:47:58.485120",
        "meta_mean_motion": 14.57795742,
        "meta_eccentricity": 0.0061115,
        "meta_inclination": 74.0489,
        "meta_ra_of_asc_node": 50.3178,
        "meta_arg_of_pericenter": 140.5725,
        "meta_mean_anomaly": 338.8444,
        "meta_ephemeris_type": 0,
        "meta_classification_type": "U",
        "meta_norad_cat_id": 33797,
        "meta_element_set_no": 999,
        "meta_rev_at_epoch": 88867,
        "meta_bstar": 0.0011189,
        "meta_mean_motion_dot": 5.225e-05,
        "meta_mean_motion_ddot": 0,
        "tle_line1": "1 33797U 93036AN  25338.65831580  .00005225  00000+0  11189-2 0  9992",
        "tle_line2": "2 33797  74.0489  50.3178 0061115 140.5725 338.8444 14.57795742888677"
      },
      "geometry": {
        "type": "Point",
        "coordinates": [
          84.43464229145604,
          63.79668404587819
        ]
      }
    },
    {
      "type": "Feature",
      "properties": {
        "norad_id": 33798,
        "name": "COSMOS 2251 DEB",
        "group": "cosmos-2251-debris",
        "lat": -57.99275379666922,
        "lon": 122.29750968969435,
        "alt_km": 690.6018457248101,
        "timestamp": "2025-12-05T09:41:19.524845+00:00",
        "meta_object_name": "COSMOS 2251 DEB",
        "meta_object_id": "1993-036AP",
        "meta_epoch": "2025-12-04T14:21:35.515008",
        "meta_mean_motion": 14.44599344,
        "meta_eccentricity": 0.0092483,
        "meta_inclination": 74.0277,
        "meta_ra_of_asc_node": 151.0695,
        "meta_arg_of_pericenter": 274.1906,
        "meta_mean_anomaly": 156.838,
        "meta_ephemeris_type": 0,
        "meta_classification_type": "U",
        "meta_norad_cat_id": 33798,
        "meta_element_set_no": 999,
        "meta_rev_at_epoch": 88476,
        "meta_bstar": 0.00028714,
        "meta_mean_motion_dot": 1.017e-05,
        "meta_mean_motion_ddot": 0,
        "tle_line1": "1 33798U 93036AP  25338.59832772  .00001017  00000+0  28714-3 0  9998",
        "tle_line2": "2 33798  74.0277 151.0695 0092483 274.1906 156.8380 14.44599344884762"
      },
      "geometry": {
        "type": "Point",
        "coordinates": [
          122.29750968969435,
          -57.99275379666922
        ]
      }
    },
    {
      "type": "Feature",
      "properties": {
        "norad_id": 33799,
        "name": "COSMOS 2251 DEB",
        "group": "cosmos-2251-debris",
        "lat": -18.31313781238822,
        "lon": 90.79181622257214,
        "alt_km": 652.8028090488197,
        "timestamp": "2025-12-05T09:41:19.524856+00:00",
        "meta_object_name": "COSMOS 2251 DEB",
        "meta_object_id": "1993-036AQ",
        "meta_epoch": "2025-12-04T16:12:23.251968",
        "meta_mean_motion": 14.79372675,
        "meta_eccentricity": 0.0024359,
        "meta_inclination": 74.0319,
        "meta_ra_of_asc_node": 97.663,
        "meta_arg_of_pericenter": 170.6106,
        "meta_mean_anomaly": 252.5395,
        "meta_ephemeris_type": 0,
        "meta_classification_type": "U",
        "meta_norad_cat_id": 33799,
        "meta_element_set_no": 999,
        "meta_rev_at_epoch": 88692,
        "meta_bstar": 0.0032643,
        "meta_mean_motion_dot": 0.0002451,
        "meta_mean_motion_ddot": 0,
        "tle_line1": "1 33799U 93036AQ  25338.67526912  .00024510  00000+0  32643-2 0  9992",
        "tle_line2": "2 33799  74.0319  97.6630 0024359 170.6106 252.5395 14.79372675886927"
      },
      "geometry": {
        "type": "Point",
        "coordinates": [
          90.79181622257214,
          -18.31313781238822
        ]
      }
    }
  ]
}